OBJECT_NAME,OBJECT_ID,EPOCH,MEAN_MOTION,ECCENTRICITY,INCLINATION,RA_OF_ASC_NODE,ARG_OF_PERICENTER,MEAN_ANOMALY,EPHEMERIS_TYPE,CLASSIFICATION_TYPE,NORAD_CAT_ID,ELEMENT_SET_NO,REV_AT_EPOCH,BSTAR,MEAN_MOTION_DOT,MEAN_MOTION_DDOT
ONEWEB-0370,2021-090T,2026-06-08T01:57:29.803680,13.20769891,.0002088,87.9192,276.2549,107.3418,252.7944,0,U,49296,999,22866,.68544E-6,.13E-6,0
ONEWEB-0371,2021-090U,2026-06-08T04:01:25.543200,13.19723815,.0001786,87.9170,306.7634,100.2510,259.8824,0,U,49297,999,22526,-.90037E-4,-.23E-6,0
ONEWEB-0372,2021-090V,2026-06-08T01:42:45.504000,13.20770808,.0001979,87.9189,276.2585,100.7989,259.3367,0,U,49298,999,22863,-.92928E-4,-.25E-6,0
ONEWEB-0373,2021-090W,2026-06-07T19:02:58.303104,13.20770022,.000209,87.9192,276.3146,100.7054,259.4314,0,U,49299,999,22978,-.22272E-4,.4E-7,0
ONEWEB-0374,2021-090X,2026-06-08T01:27:26.093088,13.14502893,.0002298,87.8960,291.5162,87.8589,272.2803,0,U,49300,999,22636,.33669E-3,.138E-5,0
ONEWEB-0375,2021-090Y,2026-06-07T18:46:00.473088,13.20771829,.0002408,87.9192,276.3081,91.4233,268.7176,0,U,49301,999,22928,.15176E-3,.75E-6,0
ONEWEB-0376,2021-090Z,2026-06-07T22:31:37.604352,13.19724844,.0001624,87.9172,306.8087,96.5746,263.5571,0,U,49302,999,22523,-.62104E-4,-.12E-6,0
ONEWEB-0377,2021-090AA,2026-06-08T01:43:10.723296,13.20772090,.0002175,87.9190,276.2525,100.2820,259.8559,0,U,49303,999,22931,.68926E-5,.16E-6,0
ONEWEB-0378,2021-090AB,2026-06-07T18:55:52.910112,13.20769494,.0002022,87.9187,276.3141,96.2956,263.8408,0,U,49304,999,22854,.42991E-4,.3E-6,0
ONEWEB-0379,2021-090AC,2026-06-08T03:10:11.180640,13.14501537,.0001918,87.8959,291.5131,95.8522,264.2826,0,U,49305,999,22637,.35938E-3,.146E-5,0
ONEWEB-0380,2021-090AD,2026-06-08T03:54:37.145088,13.19724312,.0002043,87.9164,306.7700,97.9752,262.1613,0,U,49306,999,22523,-.27102E-3,-.96E-6,0
ONEWEB-0381,2021-090AE,2026-06-08T01:38:07.736640,13.20771472,.0002147,87.9193,276.2579,94.5468,265.5911,0,U,49307,999,22862,-.49887E-5,.11E-6,0
ONEWEB-0382,2021-090AF,2026-06-07T18:02:20.501952,13.20769914,.0002063,87.9189,276.3154,92.5922,267.5447,0,U,49308,999,22857,.10065E-3,.54E-6,0
ONEWEB-0383,2021-090AG,2026-06-08T03:01:01.752672,13.14504194,.0001873,87.8964,291.5054,94.5867,265.5477,0,U,49309,999,22640,.41938E-3,.168E-5,0
ONEWEB-0384,2021-090AH,2026-06-07T21:24:35.884800,13.20811675,.0002133,87.9191,276.3309,87.5628,272.5749,0,U,49310,999,22860,.53276E-4,.35E-6,0
ONEWEB-0385,2021-090AJ,2026-06-07T21:30:51.668640,13.20772081,.000205,87.9188,276.2918,94.9823,265.1544,0,U,49311,999,22857,.28249E-3,.128E-5,0
ONEWEB-0386,2021-090AK,2026-06-08T01:33:16.719840,13.20770709,.0002009,87.9194,276.2488,92.8914,267.2449,0,U,49312,999,22861,-.26936E-4,.2E-7,0
ONEWEB-0387,2021-090AL,2026-06-07T17:55:06.261600,13.20771996,.0002312,87.9179,276.3357,99.4672,260.6722,0,U,49313,999,22857,.18064E-3,.86E-6,0
ONEWEB-0388,2021-090AM,2026-06-08T03:47:47.812992,13.19723995,.0001933,87.9164,306.7691,93.2043,266.9311,0,U,49314,999,22522,-.5232E-4,-.8E-7,0
ONEWEB-0389,2021-132A,2026-06-08T00:15:01.680768,13.17647830,.0002215,87.9140,7.6942,84.7260,275.4124,0,U,50469,999,21687,.20602E-4,.21E-6,0
ONEWEB-0390,2021-132B,2026-06-08T00:17:27.433248,13.17647799,.0001886,87.9140,7.6946,93.8092,266.3255,0,U,50470,999,21687,.16596E-3,.77E-6,0
ONEWEB-0391,2021-132C,2026-06-08T02:09:14.240160,13.17647608,.0002681,87.9140,7.6888,91.7083,268.4356,0,U,50471,999,21688,.55586E-6,.13E-6,0
ONEWEB-0392,2021-132D,2026-06-08T02:52:59.252736,13.17700220,.0002436,87.9151,7.6501,86.6371,273.5039,0,U,50472,999,21692,-.25415E-1,-.9852E-4,0
ONEWEB-0393,2021-132E,2026-06-08T02:17:45.125088,13.17649308,.0002051,87.9140,7.6731,86.1302,274.0063,0,U,50473,999,21691,-.95129E-4,-.24E-6,0
ONEWEB-0394,2021-132F,2026-06-07T22:00:32.337216,13.18685022,.0002027,87.9169,337.2869,87.3070,272.8294,0,U,50474,999,22037,.25796E-3,.115E-5,0
ONEWEB-0395,2021-132G,2026-06-08T03:56:12.130656,13.11415124,.0001937,87.8890,22.8636,89.8922,270.2428,0,U,50475,999,21453,.52701E-3,.199E-5,0
ONEWEB-0396,2021-132H,2026-06-08T01:29:21.061248,13.18684503,.0001961,87.9170,337.2703,88.2998,271.8359,0,U,50476,999,22043,-.1533E-3,-.48E-6,0
ONEWEB-0397,2021-132J,2026-06-08T00:01:56.841312,13.18684734,.0001951,87.9169,337.2828,83.9131,276.2223,0,U,50477,999,22040,-.72852E-4,-.16E-6,0
ONEWEB-0398,2021-132K,2026-06-08T03:09:47.797344,13.11420380,.0001839,87.8903,22.8601,93.8521,266.2817,0,U,50478,999,21442,.5075E-4,.31E-6,0
ONEWEB-0399,2021-132L,2026-06-08T02:50:15.758880,13.11418568,.0002278,87.8904,22.8739,77.8535,282.2848,0,U,50479,999,21441,-.12028E-2,-.414E-5,0
ONEWEB-0400,2021-132M,2026-06-08T01:19:39.063072,13.18685170,.0001855,87.9168,337.2617,96.3885,263.7459,0,U,50480,999,22040,-.21244E-3,-.71E-6,0
